{
  "type": "FeatureCollection",
  "name": "china_strategic_sites",
  "features": [
    {"type":"Feature","geometry":{"type":"Point","coordinates":[116.383,39.906]},"properties":{"id":"cn-cmc","name":"Central Military Commission","country":"China","category":"central-command","branch":"CMC","organization_type":"Supreme command organ","importance":"major","short_description":"China's highest military command body, chaired by Xi Jinping, exercising leadership over all PLA services and arms.","source_label":"CRS / DoD China Military Power Report","source_url":"https://www.defense.gov/","verification_status":"verified","last_reviewed":"2026-08"}},
    {"type":"Feature","geometry":{"type":"Point","coordinates":[118.797,32.06]},"properties":{"id":"cn-eastern-tc","name":"Eastern Theater Command HQ","country":"China","category":"joint-command","branch":"Theater Command","organization_type":"Joint theater command headquarters","importance":"major","short_description":"Joint command responsible for the Taiwan Strait and East China Sea theater, headquartered in the Nanjing area.","source_label":"DoD China Military Power Report","source_url":"https://www.defense.gov/","verification_status":"verified","last_reviewed":"2026-08"}},
    {"type":"Feature","geometry":{"type":"Point","coordinates":[113.264,23.129]},"properties":{"id":"cn-southern-tc","name":"Southern Theater Command HQ","country":"China","category":"joint-command","branch":"Theater Command","organization_type":"Joint theater command headquarters","importance":"major","short_description":"Joint command responsible for the South China Sea theater, headquartered in the Guangzhou area.","source_label":"DoD China Military Power Report","source_url":"https://www.defense.gov/","verification_status":"verified","last_reviewed":"2026-08"}},
    {"type":"Feature","geometry":{"type":"Point","coordinates":[116.383,39.906]},"properties":{"id":"cn-navy-hq","name":"PLA Navy Headquarters","country":"China","category":"navy","branch":"PLA Navy","organization_type":"Service headquarters","importance":"major","short_description":"Headquarters of the PLA Navy, directing China's naval services and the three theater fleets.","source_label":"DoD China Military Power Report","source_url":"https://www.defense.gov/","verification_status":"verified","last_reviewed":"2026-08"}},
    {"type":"Feature","geometry":{"type":"Point","coordinates":[110.359,21.271]},"properties":{"id":"cn-navy-south-fleet","name":"Southern Theater Navy / South Sea Fleet HQ","country":"China","category":"navy","branch":"PLA Navy","organization_type":"Theater fleet headquarters","importance":"major","short_description":"Command overseeing naval forces in the South China Sea theater, based in the Zhanjiang area.","source_label":"CRS China Naval Modernization","source_url":"https://crsreports.congress.gov/","verification_status":"verified","last_reviewed":"2026-08"}},
    {"type":"Feature","geometry":{"type":"Point","coordinates":[121.55,29.868]},"properties":{"id":"cn-navy-east-fleet","name":"Eastern Theater Navy / East Sea Fleet HQ","country":"China","category":"navy","branch":"PLA Navy","organization_type":"Theater fleet headquarters","importance":"major","short_description":"Command overseeing naval forces facing the East China Sea and Taiwan Strait, based in the Ningbo area.","source_label":"CRS China Naval Modernization","source_url":"https://crsreports.congress.gov/","verification_status":"verified","last_reviewed":"2026-08"}},
    {"type":"Feature","geometry":{"type":"Point","coordinates":[120.383,36.067]},"properties":{"id":"cn-navy-north-fleet","name":"Northern Theater Navy / North Sea Fleet HQ","country":"China","category":"navy","branch":"PLA Navy","organization_type":"Theater fleet headquarters","importance":"major","short_description":"Command overseeing naval forces in the Yellow Sea and northern approaches, based in the Qingdao area.","source_label":"CRS China Naval Modernization","source_url":"https://crsreports.congress.gov/","verification_status":"verified","last_reviewed":"2026-08"}},
    {"type":"Feature","geometry":{"type":"Point","coordinates":[109.508,18.253]},"properties":{"id":"cn-navy-yulin","name":"Yulin Naval Base (Hainan)","country":"China","category":"navy","branch":"PLA Navy","organization_type":"Major naval base","importance":"major","short_description":"Strategically significant naval base in the Sanya area of Hainan, publicly associated with China's ballistic-missile submarine force and South China Sea access.","source_label":"DoD China Military Power Report","source_url":"https://www.defense.gov/","verification_status":"verified","last_reviewed":"2026-08"}},
    {"type":"Feature","geometry":{"type":"Point","coordinates":[121.614,38.914]},"properties":{"id":"cn-navy-dalian","name":"Dalian Shipyard (naval construction)","country":"China","category":"navy","branch":"Defense industry","organization_type":"Major naval shipyard","importance":"major","short_description":"Major shipyard in the Dalian area publicly associated with PLA Navy surface-fleet and aircraft-carrier construction.","source_label":"CRS China Naval Modernization","source_url":"https://crsreports.congress.gov/","verification_status":"verified","last_reviewed":"2026-08"}},
    {"type":"Feature","geometry":{"type":"Point","coordinates":[116.383,39.906]},"properties":{"id":"cn-air-hq","name":"PLA Air Force Headquarters","country":"China","category":"air","branch":"PLA Air Force","organization_type":"Service headquarters","importance":"major","short_description":"Headquarters of the PLA Air Force, directing China's air services across the five theater commands.","source_label":"DoD China Military Power Report","source_url":"https://www.defense.gov/","verification_status":"verified","last_reviewed":"2026-08"}},
    {"type":"Feature","geometry":{"type":"Point","coordinates":[110.936,20.05]},"properties":{"id":"cn-air-hainan","name":"Southern Theater Air Presence (Hainan area)","country":"China","category":"air","branch":"PLA Air Force","organization_type":"Theater air presence","importance":"secondary","short_description":"Publicly documented PLA Air Force presence in the Hainan area supporting South China Sea theater operations.","source_label":"DoD China Military Power Report","source_url":"https://www.defense.gov/","verification_status":"source-reported","last_reviewed":"2026-08"}},
    {"type":"Feature","geometry":{"type":"Point","coordinates":[116.383,39.906]},"properties":{"id":"cn-rocket-hq","name":"PLA Rocket Force Headquarters","country":"China","category":"rocket","branch":"PLA Rocket Force","organization_type":"Service headquarters","importance":"major","short_description":"Headquarters of the PLA Rocket Force, which controls China's land-based conventional and nuclear missile forces.","source_label":"DoD China Military Power Report","source_url":"https://www.defense.gov/","verification_status":"verified","last_reviewed":"2026-08"}},
    {"type":"Feature","geometry":{"type":"Point","coordinates":[118.337,29.715]},"properties":{"id":"cn-rocket-base61","name":"PLARF Base 61 (Huangshan)","country":"China","category":"rocket","branch":"PLA Rocket Force","organization_type":"Operational missile base","importance":"major","short_description":"Operational Rocket Force base headquartered in the Huangshan area, publicly associated with the eastern region oriented toward the Taiwan Strait theater.","source_label":"Air University CASI / IISS Military Balance","source_url":"https://www.airuniversity.af.edu/CASI/","verification_status":"verified","last_reviewed":"2026-08"}},
    {"type":"Feature","geometry":{"type":"Point","coordinates":[102.833,24.88]},"properties":{"id":"cn-rocket-base62","name":"PLARF Base 62 (Kunming)","country":"China","category":"rocket","branch":"PLA Rocket Force","organization_type":"Operational missile base","importance":"major","short_description":"Operational Rocket Force base headquartered in the Kunming area, publicly associated with southern and southwestern coverage.","source_label":"Air University CASI / IISS Military Balance","source_url":"https://www.airuniversity.af.edu/CASI/","verification_status":"verified","last_reviewed":"2026-08"}},
    {"type":"Feature","geometry":{"type":"Point","coordinates":[110.002,27.569]},"properties":{"id":"cn-rocket-base63","name":"PLARF Base 63 (Huaihua)","country":"China","category":"rocket","branch":"PLA Rocket Force","organization_type":"Operational missile base","importance":"major","short_description":"Operational Rocket Force base headquartered in the Huaihua area, publicly associated with inland southern coverage.","source_label":"Air University CASI / IISS Military Balance","source_url":"https://www.airuniversity.af.edu/CASI/","verification_status":"verified","last_reviewed":"2026-08"}},
    {"type":"Feature","geometry":{"type":"Point","coordinates":[103.834,36.061]},"properties":{"id":"cn-rocket-base64","name":"PLARF Base 64 (Lanzhou)","country":"China","category":"rocket","branch":"PLA Rocket Force","organization_type":"Operational missile base","importance":"major","short_description":"Operational Rocket Force base headquartered in the Lanzhou area, publicly associated with northwest and north-central coverage.","source_label":"Air University CASI / IISS Military Balance","source_url":"https://www.airuniversity.af.edu/CASI/","verification_status":"verified","last_reviewed":"2026-08"}},
    {"type":"Feature","geometry":{"type":"Point","coordinates":[123.429,41.796]},"properties":{"id":"cn-rocket-base65","name":"PLARF Base 65 (Shenyang)","country":"China","category":"rocket","branch":"PLA Rocket Force","organization_type":"Operational missile base","importance":"major","short_description":"Operational Rocket Force base headquartered in the Shenyang area, publicly associated with eastern and northeastern coverage.","source_label":"Air University CASI / IISS Military Balance","source_url":"https://www.airuniversity.af.edu/CASI/","verification_status":"verified","last_reviewed":"2026-08"}},
    {"type":"Feature","geometry":{"type":"Point","coordinates":[112.454,34.619]},"properties":{"id":"cn-rocket-base66","name":"PLARF Base 66 (Luoyang)","country":"China","category":"rocket","branch":"PLA Rocket Force","organization_type":"Operational missile base","importance":"major","short_description":"Operational Rocket Force base headquartered in the Luoyang area, publicly associated with central-China coverage and reserve forces.","source_label":"Air University CASI / IISS Military Balance","source_url":"https://www.airuniversity.af.edu/CASI/","verification_status":"verified","last_reviewed":"2026-08"}},
    {"type":"Feature","geometry":{"type":"Point","coordinates":[107.144,34.361]},"properties":{"id":"cn-rocket-base67","name":"PLARF Base 67 (Baoji — support)","country":"China","category":"rocket","branch":"PLA Rocket Force","organization_type":"Support base (nuclear stockpile)","importance":"major","short_description":"Rocket Force support base headquartered in the Baoji area, publicly associated with central storage and handling of nuclear warheads.","source_label":"Air University CASI / IISS Military Balance","source_url":"https://www.airuniversity.af.edu/CASI/","verification_status":"verified","last_reviewed":"2026-08"}},
    {"type":"Feature","geometry":{"type":"Point","coordinates":[116.383,39.906]},"properties":{"id":"cn-asf","name":"PLA Aerospace Force (ASF)","country":"China","category":"information-intelligence","branch":"PLA Aerospace Force","organization_type":"Independent arm under the CMC","importance":"major","short_description":"Space-mission arm formed from the former Strategic Support Force Space Systems Department in the April 2024 reorganization; manages space launch, tracking, and space-domain operations; reports directly to the CMC.","source_label":"Jamestown / CNA / DoD","source_url":"https://jamestown.org/","verification_status":"verified","last_reviewed":"2026-08"}},
    {"type":"Feature","geometry":{"type":"Point","coordinates":[100.291,40.958]},"properties":{"id":"cn-space-jiuquan","name":"Jiuquan Satellite Launch Center (Base 20)","country":"China","category":"information-intelligence","branch":"PLA Aerospace Force","organization_type":"Satellite launch center","importance":"major","short_description":"Major inland spaceport in the Inner Mongolia/Gansu border area used for crewed missions and a range of satellite launches; a corps-grade ASF unit.","source_label":"Jamestown / Air University CASI","source_url":"https://jamestown.org/","verification_status":"verified","last_reviewed":"2026-08"}},
    {"type":"Feature","geometry":{"type":"Point","coordinates":[111.608,38.849]},"properties":{"id":"cn-space-taiyuan","name":"Taiyuan Satellite Launch Center (Base 25)","country":"China","category":"information-intelligence","branch":"PLA Aerospace Force","organization_type":"Satellite launch center","importance":"major","short_description":"Spaceport in the Kelan County area of Shanxi used mainly for polar and sun-synchronous orbit launches; a corps-grade ASF unit.","source_label":"Jamestown / Air University CASI","source_url":"https://jamestown.org/","verification_status":"verified","last_reviewed":"2026-08"}},
    {"type":"Feature","geometry":{"type":"Point","coordinates":[102.026,28.246]},"properties":{"id":"cn-space-xichang","name":"Xichang Satellite Launch Center (Base 27)","country":"China","category":"information-intelligence","branch":"PLA Aerospace Force","organization_type":"Satellite launch center","importance":"major","short_description":"Spaceport in the Xichang area of Sichuan, China's primary site for geostationary and BeiDou launches; also oversees the Wenchang coastal site.","source_label":"Jamestown / Air University CASI","source_url":"https://jamestown.org/","verification_status":"verified","last_reviewed":"2026-08"}},
    {"type":"Feature","geometry":{"type":"Point","coordinates":[110.753,19.614]},"properties":{"id":"cn-space-wenchang","name":"Wenchang Space Launch Site (Hainan)","country":"China","category":"information-intelligence","branch":"PLA Aerospace Force","organization_type":"Coastal launch site","importance":"major","short_description":"Coastal spaceport in the Wenchang area of Hainan used for heavy-lift rockets such as the Long March 5 and 7; associated with Base 27.","source_label":"Jamestown / Air University CASI","source_url":"https://jamestown.org/","verification_status":"verified","last_reviewed":"2026-08"}},
    {"type":"Feature","geometry":{"type":"Point","coordinates":[108.948,34.263]},"properties":{"id":"cn-space-xian-cc","name":"Xi'an Satellite Control Center (Base 26)","country":"China","category":"information-intelligence","branch":"PLA Aerospace Force","organization_type":"Satellite tracking & control center","importance":"major","short_description":"Primary telemetry, tracking, and control node in the Xi'an area coordinating China's satellite control network; a corps-grade ASF unit.","source_label":"Jamestown / Air University CASI","source_url":"https://jamestown.org/","verification_status":"verified","last_reviewed":"2026-08"}},
    {"type":"Feature","geometry":{"type":"Point","coordinates":[116.383,39.906]},"properties":{"id":"cn-csf","name":"PLA Cyberspace Force (CSF)","country":"China","category":"information-intelligence","branch":"PLA Cyberspace Force","organization_type":"Independent arm under the CMC","importance":"major","short_description":"Cyber-mission arm formed from the former Strategic Support Force Network Systems Department in the April 2024 reorganization; reports directly to the CMC.","source_label":"Jamestown / CNA / Defense News","source_url":"https://jamestown.org/","verification_status":"verified","last_reviewed":"2026-08"}},
    {"type":"Feature","geometry":{"type":"Point","coordinates":[116.383,39.906]},"properties":{"id":"cn-isf","name":"PLA Information Support Force (ISF)","country":"China","category":"information-intelligence","branch":"PLA Information Support Force","organization_type":"Independent arm under the CMC","importance":"major","short_description":"Information and communications-backbone arm established 19 April 2024 to support integrated joint operations; reports directly to the CMC.","source_label":"Jamestown / CNA / Defense News","source_url":"https://jamestown.org/","verification_status":"verified","last_reviewed":"2026-08"}},
    {"type":"Feature","geometry":{"type":"Point","coordinates":[116.298,39.983]},"properties":{"id":"cn-csf-3pla-legacy","name":"Technical Intelligence Lineage Node (Haidian, Beijing)","country":"China","category":"information-intelligence","branch":"PLA Cyberspace Force","organization_type":"Strategic technical-intelligence area","importance":"major","short_description":"Beijing/Haidian area historically associated with the PLA's strategic signals-intelligence organization (the former General Staff Third Department, '3PLA'), whose mission and structure passed through the Strategic Support Force to today's Cyberspace Force.","source_label":"New America / Project 2049 / Jamestown","source_url":"https://www.newamerica.org/","verification_status":"source-reported","last_reviewed":"2026-08"}},
    {"type":"Feature","geometry":{"type":"Point","coordinates":[116.383,39.906]},"properties":{"id":"cn-csf-cyber-ops-base","name":"CSF Cyberspace Operations Base","country":"China","category":"information-intelligence","branch":"PLA Cyberspace Force","organization_type":"Operational cyber organization","importance":"major","short_description":"Cyberspace Force organization publicly associated with oversight of the PRC's offensive cyber forces; part of the arm reconstituted directly under the CMC in April 2024.","source_label":"Jamestown Cyberspace Force research","source_url":"https://jamestown.org/","verification_status":"source-reported","last_reviewed":"2026-08"}},
    {"type":"Feature","geometry":{"type":"Point","coordinates":[118.797,32.06]},"properties":{"id":"cn-csf-trb-east","name":"CSF Eastern Technical Reconnaissance Base (theater-level)","country":"China","category":"information-intelligence","branch":"PLA Cyberspace Force","organization_type":"Regional technical reconnaissance base","importance":"secondary","short_description":"One of five corps-grade Technical Reconnaissance Bases publicly described as aligning with China's military theaters; the eastern base is associated with the Taiwan/East China Sea theater. Location shown at theater level only.","source_label":"Jamestown Cyberspace Force research","source_url":"https://jamestown.org/","verification_status":"source-reported","last_reviewed":"2026-08"}},
    {"type":"Feature","geometry":{"type":"Point","coordinates":[113.264,23.129]},"properties":{"id":"cn-csf-trb-south","name":"CSF Southern Technical Reconnaissance Base (theater-level)","country":"China","category":"information-intelligence","branch":"PLA Cyberspace Force","organization_type":"Regional technical reconnaissance base","importance":"secondary","short_description":"One of five corps-grade Technical Reconnaissance Bases publicly described as aligning with China's military theaters; the southern base is associated with the South China Sea theater. Location shown at theater level only.","source_label":"Jamestown Cyberspace Force research","source_url":"https://jamestown.org/","verification_status":"source-reported","last_reviewed":"2026-08"}}
  ]
}
